NEXTSAT-1               
1 43811U 18099BF  26068.68342010  .00004546  00000+0  29857-3 0  9992
2 43811  97.4203 114.8574 0011320 323.9610  36.0854 15.08057555396886
STARLINK-3645           
1 51986U 22025AG  26068.22155104 -.00000678  00000+0 -24537-4 0  9999
2 51986  53.2184  41.0670 0001327  81.2225 278.8918 15.08837507220994
